{
  "type": "FeatureCollection",
  "features": [
    {
      "type": "Feature",
      "properties": {
        "norad_id": 34682,
        "name": "COSMOS 2251 DEB",
        "group": "cosmos-2251-debris",
        "lat": -73.29744284404806,
        "lon": -12.613727968762536,
        "alt_km": 701.9833816762484,
        "timestamp": "2025-12-24T20:42:21.420414+00:00",
        "meta_object_name": "COSMOS 2251 DEB",
        "meta_object_id": "1993-036YC",
        "meta_epoch": "2025-12-24T04:46:47.419680",
        "meta_mean_motion": 14.58969847,
        "meta_eccentricity": 0.00177454,
        "meta_inclination": 74.0391,
        "meta_ra_of_asc_node": 61.1628,
        "meta_arg_of_pericenter": 192.9748,
        "meta_mean_anomaly": 197.8578,
        "meta_ephemeris_type": 0,
        "meta_classification_type": "U",
        "meta_norad_cat_id": 34682,
        "meta_element_set_no": 999,
        "meta_rev_at_epoch": 88853,
        "meta_bstar": 0.00072188524,
        "meta_mean_motion_dot": 3.367e-05,
        "meta_mean_motion_ddot": 0,
        "tle_line1": "1 34682U 93036YC  25358.19915995  .00003367  00000+0  72189-3 0  9993",
        "tle_line2": "2 34682  74.0391  61.1628 0017745 192.9748 197.8578 14.58969847888535"
      },
      "geometry": {
        "type": "Point",
        "coordinates": [
          -12.613727968762536,
          -73.29744284404806
        ]
      }
    },
    {
      "type": "Feature",
      "properties": {
        "norad_id": 34683,
        "name": "COSMOS 2251 DEB",
        "group": "cosmos-2251-debris",
        "lat": -44.945591711652035,
        "lon": 52.34765216402969,
        "alt_km": 692.3284720716974,
        "timestamp": "2025-12-24T20:42:21.420424+00:00",
        "meta_object_name": "COSMOS 2251 DEB",
        "meta_object_id": "1993-036YD",
        "meta_epoch": "2025-12-24T06:25:36.707808",
        "meta_mean_motion": 14.6462771,
        "meta_eccentricity": 0.00173813,
        "meta_inclination": 74.0294,
        "meta_ra_of_asc_node": 70.1002,
        "meta_arg_of_pericenter": 185.0846,
        "meta_mean_anomaly": 231.8067,
        "meta_ephemeris_type": 0,
        "meta_classification_type": "U",
        "meta_norad_cat_id": 34683,
        "meta_element_set_no": 999,
        "meta_rev_at_epoch": 88517,
        "meta_bstar": 0.0012488625,
        "meta_mean_motion_dot": 6.627e-05,
        "meta_mean_motion_ddot": 0,
        "tle_line1": "1 34683U 93036YD  25358.26778597  .00006627  00000+0  12489-2 0  9995",
        "tle_line2": "2 34683  74.0294  70.1002 0017381 185.0846 231.8067 14.64627710885178"
      },
      "geometry": {
        "type": "Point",
        "coordinates": [
          52.34765216402969,
          -44.945591711652035
        ]
      }
    },
    {
      "type": "Feature",
      "properties": {
        "norad_id": 34685,
        "name": "COSMOS 2251 DEB",
        "group": "cosmos-2251-debris",
        "lat": 21.229981945836656,
        "lon": -60.65528139576411,
        "alt_km": 697.42153669662,
        "timestamp": "2025-12-24T20:42:21.420434+00:00",
        "meta_object_name": "COSMOS 2251 DEB",
        "meta_object_id": "1993-036YF",
        "meta_epoch": "2025-12-24T02:40:25.828320",
        "meta_mean_motion": 14.57603922,
        "meta_eccentricity": 0.00142084,
        "meta_inclination": 74.0299,
        "meta_ra_of_asc_node": 127.1601,
        "meta_arg_of_pericenter": 232.1356,
        "meta_mean_anomaly": 304.844,
        "meta_ephemeris_type": 0,
        "meta_classification_type": "U",
        "meta_norad_cat_id": 34685,
        "meta_element_set_no": 999,
        "meta_rev_at_epoch": 88697,
        "meta_bstar": 0.0011246786,
        "meta_mean_motion_dot": 5.105e-05,
        "meta_mean_motion_ddot": 0,
        "tle_line1": "1 34685U 93036YF  25358.11141005  .00005105  00000+0  11247-2 0  9990",
        "tle_line2": "2 34685  74.0299 127.1601 0014208 232.1356 304.8440 14.57603922886974"
      },
      "geometry": {
        "type": "Point",
        "coordinates": [
          -60.65528139576411,
          21.229981945836656
        ]
      }
    },
    {
      "type": "Feature",
      "properties": {
        "norad_id": 34689,
        "name": "COSMOS 2251 DEB",
        "group": "cosmos-2251-debris",
        "lat": -24.028622437302836,
        "lon": 29.618769538445637,
        "alt_km": 806.2342196863347,
        "timestamp": "2025-12-24T20:42:21.420461+00:00",
        "meta_object_name": "COSMOS 2251 DEB",
        "meta_object_id": "1993-036YK",
        "meta_epoch": "2025-12-15T15:20:16.539648",
        "meta_mean_motion": 14.04491905,
        "meta_eccentricity": 0.02275051,
        "meta_inclination": 74.0901,
        "meta_ra_of_asc_node": 218.3502,
        "meta_arg_of_pericenter": 286.6099,
        "meta_mean_anomaly": 101.262,
        "meta_ephemeris_type": 0,
        "meta_classification_type": "U",
        "meta_norad_cat_id": 34689,
        "meta_element_set_no": 999,
        "meta_rev_at_epoch": 84382,
        "meta_bstar": 0.0020174062,
        "meta_mean_motion_dot": 4.031e-05,
        "meta_mean_motion_ddot": 0,
        "tle_line1": "1 34689U 93036YK  25349.63908032  .00004031  00000+0  20174-2 0  9998",
        "tle_line2": "2 34689  74.0901 218.3502 0227505 286.6099 101.2620 14.04491905843829"
      },
      "geometry": {
        "type": "Point",
        "coordinates": [
          29.618769538445637,
          -24.028622437302836
        ]
      }
    },
    {
      "type": "Feature",
      "properties": {
        "norad_id": 34721,
        "name": "COSMOS 2251 DEB",
        "group": "cosmos-2251-debris",
        "lat": -73.3386463485785,
        "lon": -160.2830840967591,
        "alt_km": 762.2943338742662,
        "timestamp": "2025-12-24T20:42:21.420473+00:00",
        "meta_object_name": "COSMOS 2251 DEB",
        "meta_object_id": "1993-036YP",
        "meta_epoch": "2025-12-23T08:06:44.057952",
        "meta_mean_motion": 13.96892285,
        "meta_eccentricity": 0.0222857,
        "meta_inclination": 73.9221,
        "meta_ra_of_asc_node": 307.8595,
        "meta_arg_of_pericenter": 244.8639,
        "meta_mean_anomaly": 275.037,
        "meta_ephemeris_type": 0,
        "meta_classification_type": "U",
        "meta_norad_cat_id": 34721,
        "meta_element_set_no": 999,
        "meta_rev_at_epoch": 85297,
        "meta_bstar": 0.0009996873,
        "meta_mean_motion_dot": 1.69e-05,
        "meta_mean_motion_ddot": 0,
        "tle_line1": "1 34721U 93036YP  25357.33800993  .00001690  00000+0  99969-3 0  9995",
        "tle_line2": "2 34721  73.9221 307.8595 0222857 244.8639 275.0370 13.96892285852970"
      },
      "geometry": {
        "type": "Point",
        "coordinates": [
          -160.2830840967591,
          -73.3386463485785
        ]
      }
    },
    {
      "type": "Feature",
      "properties": {
        "norad_id": 34722,
        "name": "COSMOS 2251 DEB",
        "group": "cosmos-2251-debris",
        "lat": 62.42250932967782,
        "lon": -11.91685114805104,
        "alt_km": 964.912443721184,
        "timestamp": "2025-12-24T20:42:21.420484+00:00",
        "meta_object_name": "COSMOS 2251 DEB",
        "meta_object_id": "1993-036YQ",
        "meta_epoch": "2025-12-24T03:27:06.651936",
        "meta_mean_motion": 14.11966328,
        "meta_eccentricity": 0.01665205,
        "meta_inclination": 73.8735,
        "meta_ra_of_asc_node": 315.7266,
        "meta_arg_of_pericenter": 239.2863,
        "meta_mean_anomaly": 135.4881,
        "meta_ephemeris_type": 0,
        "meta_classification_type": "U",
        "meta_norad_cat_id": 34722,
        "meta_element_set_no": 999,
        "meta_rev_at_epoch": 86406,
        "meta_bstar": 0.00062986617,
        "meta_mean_motion_dot": 1.286e-05,
        "meta_mean_motion_ddot": 0,
        "tle_line1": "1 34722U 93036YQ  25358.14382699  .00001286  00000+0  62987-3 0  9995",
        "tle_line2": "2 34722  73.8735 315.7266 0166520 239.2863 135.4881 14.11966328864061"
      },
      "geometry": {
        "type": "Point",
        "coordinates": [
          -11.91685114805104,
          62.42250932967782
        ]
      }
    },
    {
      "type": "Feature",
      "properties": {
        "norad_id": 34726,
        "name": "COSMOS 2251 DEB",
        "group": "cosmos-2251-debris",
        "lat": 8.074566601544802,
        "lon": -34.474054110692116,
        "alt_km": 702.0564582548677,
        "timestamp": "2025-12-24T20:42:21.420494+00:00",
        "meta_object_name": "COSMOS 2251 DEB",
        "meta_object_id": "1993-036YU",
        "meta_epoch": "2025-12-24T04:13:01.255872",
        "meta_mean_motion": 14.59524729,
        "meta_eccentricity": 0.00417122,
        "meta_inclination": 74.0282,
        "meta_ra_of_asc_node": 324.5074,
        "meta_arg_of_pericenter": 111.625,
        "meta_mean_anomaly": 248.9367,
        "meta_ephemeris_type": 0,
        "meta_classification_type": "U",
        "meta_norad_cat_id": 34726,
        "meta_element_set_no": 999,
        "meta_rev_at_epoch": 88669,
        "meta_bstar": 0.00041571183,
        "meta_mean_motion_dot": 1.969e-05,
        "meta_mean_motion_ddot": 0,
        "tle_line1": "1 34726U 93036YU  25358.17570898  .00001969  00000+0  41571-3 0  9996",
        "tle_line2": "2 34726  74.0282 324.5074 0041712 111.6250 248.9367 14.59524729886697"
      },
      "geometry": {
        "type": "Point",
        "coordinates": [
          -34.474054110692116,
          8.074566601544802
        ]
      }
    }
  ]
}